{
  "type": "FeatureCollection",
  "features": [
    {
      "type": "Feature",
      "properties": {
        "norad_id": 37474,
        "name": "FENGYUN 1C DEB",
        "group": "fengyun-1c-debris",
        "lat": 74.06725901028116,
        "lon": 61.53009146430169,
        "alt_km": 545.5142926618137,
        "timestamp": "2025-12-26T03:50:12.382861+00:00",
        "meta_object_name": "FENGYUN 1C DEB",
        "meta_object_id": "1999-025EJU",
        "meta_epoch": "2025-12-24T20:27:11.751840",
        "meta_mean_motion": 14.75336931,
        "meta_eccentricity": 0.013197,
        "meta_inclination": 99.1656,
        "meta_ra_of_asc_node": 205.6078,
        "meta_arg_of_pericenter": 97.4054,
        "meta_mean_anomaly": 264.2169,
        "meta_ephemeris_type": 0,
        "meta_classification_type": "U",
        "meta_norad_cat_id": 37474,
        "meta_element_set_no": 999,
        "meta_rev_at_epoch": 62554,
        "meta_bstar": 0.0012519274,
        "meta_mean_motion_dot": 9.722e-05,
        "meta_mean_motion_ddot": 0,
        "tle_line1": "1 37474U 99025EJU 25358.85221935  .00009722  00000+0  12519-2 0  9997",
        "tle_line2": "2 37474  99.1656 205.6078 0131970  97.4054 264.2169 14.75336931625545"
      },
      "geometry": {
        "type": "Point",
        "coordinates": [
          61.53009146430169,
          74.06725901028116
        ]
      }
    },
    {
      "type": "Feature",
      "properties": {
        "norad_id": 37477,
        "name": "FENGYUN 1C DEB",
        "group": "fengyun-1c-debris",
        "lat": 14.825836406653197,
        "lon": -173.25066552751986,
        "alt_km": 830.2433610429207,
        "timestamp": "2025-12-26T03:50:12.382872+00:00",
        "meta_object_name": "FENGYUN 1C DEB",
        "meta_object_id": "1999-025EJX",
        "meta_epoch": "2025-12-16T18:06:36.022176",
        "meta_mean_motion": 14.19731482,
        "meta_eccentricity": 0.00371355,
        "meta_inclination": 98.6057,
        "meta_ra_of_asc_node": 355.3103,
        "meta_arg_of_pericenter": 94.8392,
        "meta_mean_anomaly": 265.7026,
        "meta_ephemeris_type": 0,
        "meta_classification_type": "U",
        "meta_norad_cat_id": 37477,
        "meta_element_set_no": 999,
        "meta_rev_at_epoch": 81971,
        "meta_bstar": 0.00055952668,
        "meta_mean_motion_dot": 1.15e-05,
        "meta_mean_motion_ddot": 0,
        "tle_line1": "1 37477U 99025EJX 25350.75458359  .00001150  00000+0  55953-3 0  9990",
        "tle_line2": "2 37477  98.6057 355.3103 0037135  94.8392 265.7026 14.19731482819713"
      },
      "geometry": {
        "type": "Point",
        "coordinates": [
          -173.25066552751986,
          14.825836406653197
        ]
      }
    },
    {
      "type": "Feature",
      "properties": {
        "norad_id": 37478,
        "name": "FENGYUN 1C DEB",
        "group": "fengyun-1c-debris",
        "lat": 54.465762086887565,
        "lon": -32.546692694935174,
        "alt_km": 1483.3552950540525,
        "timestamp": "2025-12-26T03:50:12.382883+00:00",
        "meta_object_name": "FENGYUN 1C DEB",
        "meta_object_id": "1999-025EJY",
        "meta_epoch": "2025-12-23T05:31:28.594848",
        "meta_mean_motion": 13.03020761,
        "meta_eccentricity": 0.05479168,
        "meta_inclination": 99.6522,
        "meta_ra_of_asc_node": 338.6097,
        "meta_arg_of_pericenter": 295.1195,
        "meta_mean_anomaly": 59.4029,
        "meta_ephemeris_type": 0,
        "meta_classification_type": "U",
        "meta_norad_cat_id": 37478,
        "meta_element_set_no": 999,
        "meta_rev_at_epoch": 56698,
        "meta_bstar": 0.0032489988,
        "meta_mean_motion_dot": 2.046e-05,
        "meta_mean_motion_ddot": 0,
        "tle_line1": "1 37478U 99025EJY 25357.23019207  .00002046  00000+0  32490-2 0  9991",
        "tle_line2": "2 37478  99.6522 338.6097 0547916 295.1195  59.4029 13.03020761566980"
      },
      "geometry": {
        "type": "Point",
        "coordinates": [
          -32.546692694935174,
          54.465762086887565
        ]
      }
    },
    {
      "type": "Feature",
      "properties": {
        "norad_id": 37589,
        "name": "FENGYUN 1C DEB",
        "group": "fengyun-1c-debris",
        "lat": 17.355944505521865,
        "lon": -100.02407247014732,
        "alt_km": 939.6692712156273,
        "timestamp": "2025-12-26T03:50:12.382893+00:00",
        "meta_object_name": "FENGYUN 1C DEB",
        "meta_object_id": "1999-025EKH",
        "meta_epoch": "2025-12-22T12:47:20.483808",
        "meta_mean_motion": 14.08264276,
        "meta_eccentricity": 0.01172304,
        "meta_inclination": 99.0749,
        "meta_ra_of_asc_node": 259.1917,
        "meta_arg_of_pericenter": 236.7185,
        "meta_mean_anomaly": 122.271,
        "meta_ephemeris_type": 0,
        "meta_classification_type": "U",
        "meta_norad_cat_id": 37589,
        "meta_element_set_no": 999,
        "meta_rev_at_epoch": 82722,
        "meta_bstar": 0.0028934456,
        "meta_mean_motion_dot": 5.223e-05,
        "meta_mean_motion_ddot": 0,
        "tle_line1": "1 37589U 99025EKH 25356.53287597  .00005223  00000+0  28934-2 0  9993",
        "tle_line2": "2 37589  99.0749 259.1917 0117230 236.7185 122.2710 14.08264276827228"
      },
      "geometry": {
        "type": "Point",
        "coordinates": [
          -100.02407247014732,
          17.355944505521865
        ]
      }
    },
    {
      "type": "Feature",
      "properties": {
        "norad_id": 37594,
        "name": "FENGYUN 1C DEB",
        "group": "fengyun-1c-debris",
        "lat": -5.237769048808245,
        "lon": 29.93611882095208,
        "alt_km": 892.6501580700142,
        "timestamp": "2025-12-26T03:50:12.382903+00:00",
        "meta_object_name": "FENGYUN 1C DEB",
        "meta_object_id": "1999-025EKN",
        "meta_epoch": "2025-12-23T12:53:53.738592",
        "meta_mean_motion": 14.11128547,
        "meta_eccentricity": 0.00852864,
        "meta_inclination": 98.7335,
        "meta_ra_of_asc_node": 26.5783,
        "meta_arg_of_pericenter": 238.8668,
        "meta_mean_anomaly": 120.4117,
        "meta_ephemeris_type": 0,
        "meta_classification_type": "U",
        "meta_norad_cat_id": 37594,
        "meta_element_set_no": 999,
        "meta_rev_at_epoch": 77914,
        "meta_bstar": 0.00023559331,
        "meta_mean_motion_dot": 3.96e-06,
        "meta_mean_motion_ddot": 0,
        "tle_line1": "1 37594U 99025EKN 25357.53742753  .00000396  00000+0  23559-3 0  9995",
        "tle_line2": "2 37594  98.7335  26.5783 0085286 238.8668 120.4117 14.11128547779144"
      },
      "geometry": {
        "type": "Point",
        "coordinates": [
          29.93611882095208,
          -5.237769048808245
        ]
      }
    },
    {
      "type": "Feature",
      "properties": {
        "norad_id": 37595,
        "name": "FENGYUN 1C DEB",
        "group": "fengyun-1c-debris",
        "lat": -32.59679610994855,
        "lon": -143.21421869747235,
        "alt_km": 641.7573383954923,
        "timestamp": "2025-12-26T03:50:12.382913+00:00",
        "meta_object_name": "FENGYUN 1C DEB",
        "meta_object_id": "1999-025EKP",
        "meta_epoch": "2025-12-23T19:12:19.083168",
        "meta_mean_motion": 14.71564982,
        "meta_eccentricity": 0.00285537,
        "meta_inclination": 99.0458,
        "meta_ra_of_asc_node": 208.3187,
        "meta_arg_of_pericenter": 332.5627,
        "meta_mean_anomaly": 100.7823,
        "meta_ephemeris_type": 0,
        "meta_classification_type": "U",
        "meta_norad_cat_id": 37595,
        "meta_element_set_no": 999,
        "meta_rev_at_epoch": 62768,
        "meta_bstar": 0.0037494781,
        "meta_mean_motion_dot": 0.00023466,
        "meta_mean_motion_ddot": 0,
        "tle_line1": "1 37595U 99025EKP 25357.80022087  .00023466  00000+0  37495-2 0  9993",
        "tle_line2": "2 37595  99.0458 208.3187 0028553 332.5627 100.7823 14.71564982627683"
      },
      "geometry": {
        "type": "Point",
        "coordinates": [
          -143.21421869747235,
          -32.59679610994855
        ]
      }
    },
    {
      "type": "Feature",
      "properties": {
        "norad_id": 37600,
        "name": "FENGYUN 1C DEB",
        "group": "fengyun-1c-debris",
        "lat": -55.62371720504543,
        "lon": -37.08808898857957,
        "alt_km": 1146.5743994901668,
        "timestamp": "2025-12-26T03:50:12.382923+00:00",
        "meta_object_name": "FENGYUN 1C DEB",
        "meta_object_id": "1999-025EKU",
        "meta_epoch": "2025-12-24T03:47:47.081184",
        "meta_mean_motion": 13.82645296,
        "meta_eccentricity": 0.03566234,
        "meta_inclination": 98.933,
        "meta_ra_of_asc_node": 154.3007,
        "meta_arg_of_pericenter": 18.485,
        "meta_mean_anomaly": 342.8887,
        "meta_ephemeris_type": 0,
        "meta_classification_type": "U",
        "meta_norad_cat_id": 37600,
        "meta_element_set_no": 999,
        "meta_rev_at_epoch": 88645,
        "meta_bstar": 0.0028552433,
        "meta_mean_motion_dot": 5.014e-05,
        "meta_mean_motion_ddot": 0,
        "tle_line1": "1 37600U 99025EKU 25358.15818381  .00005014  00000+0  28552-2 0  9992",
        "tle_line2": "2 37600  98.9330 154.3007 0356623  18.4850 342.8887 13.82645296886458"
      },
      "geometry": {
        "type": "Point",
        "coordinates": [
          -37.08808898857957,
          -55.62371720504543
        ]
      }
    }
  ]
}